{
  "type": "FeatureCollection",
  "features": [
    {
      "type": "Feature",
      "properties": {
        "norad_id": 30073,
        "name": "FENGYUN 1C DEB",
        "group": "fengyun-1c-debris",
        "lat": -72.16196363513362,
        "lon": 124.20907674183509,
        "alt_km": 800.1090443818912,
        "timestamp": "2025-12-27T05:29:39.476563+00:00",
        "meta_object_name": "FENGYUN 1C DEB",
        "meta_object_id": "1999-025QA",
        "meta_epoch": "2025-12-26T21:47:10.743936",
        "meta_mean_motion": 14.1874961,
        "meta_eccentricity": 0.00527766,
        "meta_inclination": 99.4127,
        "meta_ra_of_asc_node": 334.8984,
        "meta_arg_of_pericenter": 240.3895,
        "meta_mean_anomaly": 174.7479,
        "meta_ephemeris_type": 0,
        "meta_classification_type": "U",
        "meta_norad_cat_id": 30073,
        "meta_element_set_no": 999,
        "meta_rev_at_epoch": 97126,
        "meta_bstar": 0.0016062398,
        "meta_mean_motion_dot": 3.334e-05,
        "meta_mean_motion_ddot": 0,
        "tle_line1": "1 30073U 99025QA  25360.90776324  .00003334  00000+0  16062-2 0  9991",
        "tle_line2": "2 30073  99.4127 334.8984 0052776 240.3895 174.7479 14.18749610971269"
      },
      "geometry": {
        "type": "Point",
        "coordinates": [
          124.20907674183509,
          -72.16196363513362
        ]
      }
    },
    {
      "type": "Feature",
      "properties": {
        "norad_id": 30074,
        "name": "FENGYUN 1C DEB",
        "group": "fengyun-1c-debris",
        "lat": 63.83927650119623,
        "lon": 48.640801131572026,
        "alt_km": 794.4081591665627,
        "timestamp": "2025-12-27T05:29:39.476573+00:00",
        "meta_object_name": "FENGYUN 1C DEB",
        "meta_object_id": "1999-025QB",
        "meta_epoch": "2025-12-26T15:35:26.651328",
        "meta_mean_motion": 14.12927026,
        "meta_eccentricity": 0.00966737,
        "meta_inclination": 99.1283,
        "meta_ra_of_asc_node": 67.1565,
        "meta_arg_of_pericenter": 113.2956,
        "meta_mean_anomaly": 247.8426,
        "meta_ephemeris_type": 0,
        "meta_classification_type": "U",
        "meta_norad_cat_id": 30074,
        "meta_element_set_no": 999,
        "meta_rev_at_epoch": 96858,
        "meta_bstar": 0.0012738182,
        "meta_mean_motion_dot": 2.435e-05,
        "meta_mean_motion_ddot": 0,
        "tle_line1": "1 30074U 99025QB  25360.64961402  .00002435  00000+0  12738-2 0  9993",
        "tle_line2": "2 30074  99.1283  67.1565 0096673 113.2956 247.8426 14.12927026968589"
      },
      "geometry": {
        "type": "Point",
        "coordinates": [
          48.640801131572026,
          63.83927650119623
        ]
      }
    },
    {
      "type": "Feature",
      "properties": {
        "norad_id": 30075,
        "name": "FENGYUN 1C DEB",
        "group": "fengyun-1c-debris",
        "lat": -1.3874955147182155,
        "lon": -128.53820610440846,
        "alt_km": 873.7741178790857,
        "timestamp": "2025-12-27T05:29:39.476584+00:00",
        "meta_object_name": "FENGYUN 1C DEB",
        "meta_object_id": "1999-025QC",
        "meta_epoch": "2025-12-26T09:59:26.158272",
        "meta_mean_motion": 13.92538152,
        "meta_eccentricity": 0.0091508,
        "meta_inclination": 99.3598,
        "meta_ra_of_asc_node": 50.8699,
        "meta_arg_of_pericenter": 140.3251,
        "meta_mean_anomaly": 288.4965,
        "meta_ephemeris_type": 0,
        "meta_classification_type": "U",
        "meta_norad_cat_id": 30075,
        "meta_element_set_no": 999,
        "meta_rev_at_epoch": 96255,
        "meta_bstar": 2.9435e-05,
        "meta_mean_motion_dot": -6e-08,
        "meta_mean_motion_ddot": 0,
        "tle_line1": "1 30075U 99025QC  25360.41627498 -.00000006  00000+0  29435-4 0  9990",
        "tle_line2": "2 30075  99.3598  50.8699 0091508 140.3251 288.4965 13.92538152962554"
      },
      "geometry": {
        "type": "Point",
        "coordinates": [
          -128.53820610440846,
          -1.3874955147182155
        ]
      }
    },
    {
      "type": "Feature",
      "properties": {
        "norad_id": 30076,
        "name": "FENGYUN 1C DEB",
        "group": "fengyun-1c-debris",
        "lat": 66.33174830162457,
        "lon": -170.6712346957202,
        "alt_km": 896.7164354972483,
        "timestamp": "2025-12-27T05:29:39.476594+00:00",
        "meta_object_name": "FENGYUN 1C DEB",
        "meta_object_id": "1999-025QD",
        "meta_epoch": "2025-12-26T22:17:48.889248",
        "meta_mean_motion": 13.76300863,
        "meta_eccentricity": 0.01757028,
        "meta_inclination": 99.2396,
        "meta_ra_of_asc_node": 347.2377,
        "meta_arg_of_pericenter": 56.6199,
        "meta_mean_anomaly": 8.4934,
        "meta_ephemeris_type": 0,
        "meta_classification_type": "U",
        "meta_norad_cat_id": 30076,
        "meta_element_set_no": 999,
        "meta_rev_at_epoch": 95089,
        "meta_bstar": 0.00037733878,
        "meta_mean_motion_dot": 3.7e-06,
        "meta_mean_motion_ddot": 0,
        "tle_line1": "1 30076U 99025QD  25360.92903807  .00000370  00000+0  37734-3 0  9991",
        "tle_line2": "2 30076  99.2396 347.2377 0175702  56.6199   8.4934 13.76300863950893"
      },
      "geometry": {
        "type": "Point",
        "coordinates": [
          -170.6712346957202,
          66.33174830162457
        ]
      }
    },
    {
      "type": "Feature",
      "properties": {
        "norad_id": 30077,
        "name": "FENGYUN 1C DEB",
        "group": "fengyun-1c-debris",
        "lat": -17.003449414026544,
        "lon": -166.27151020684505,
        "alt_km": 860.5053192297237,
        "timestamp": "2025-12-27T05:29:39.476605+00:00",
        "meta_object_name": "FENGYUN 1C DEB",
        "meta_object_id": "1999-025QE",
        "meta_epoch": "2025-12-26T22:17:16.058976",
        "meta_mean_motion": 14.07081249,
        "meta_eccentricity": 0.0020752,
        "meta_inclination": 98.7574,
        "meta_ra_of_asc_node": 16.1394,
        "meta_arg_of_pericenter": 222.4301,
        "meta_mean_anomaly": 254.5884,
        "meta_ephemeris_type": 0,
        "meta_classification_type": "U",
        "meta_norad_cat_id": 30077,
        "meta_element_set_no": 999,
        "meta_rev_at_epoch": 97312,
        "meta_bstar": 0.00014830294,
        "meta_mean_motion_dot": 2.06e-06,
        "meta_mean_motion_ddot": 0,
        "tle_line1": "1 30077U 99025QE  25360.92865809  .00000206  00000+0  14830-3 0  9991",
        "tle_line2": "2 30077  98.7574  16.1394 0020752 222.4301 254.5884 14.07081249973127"
      },
      "geometry": {
        "type": "Point",
        "coordinates": [
          -166.27151020684505,
          -17.003449414026544
        ]
      }
    },
    {
      "type": "Feature",
      "properties": {
        "norad_id": 30078,
        "name": "FENGYUN 1C DEB",
        "group": "fengyun-1c-debris",
        "lat": -24.720552495728658,
        "lon": -107.96137623171519,
        "alt_km": 787.8384824293589,
        "timestamp": "2025-12-27T05:29:39.476615+00:00",
        "meta_object_name": "FENGYUN 1C DEB",
        "meta_object_id": "1999-025QF",
        "meta_epoch": "2025-12-26T20:37:57.699840",
        "meta_mean_motion": 14.23214876,
        "meta_eccentricity": 0.00535659,
        "meta_inclination": 98.8313,
        "meta_ra_of_asc_node": 75.7727,
        "meta_arg_of_pericenter": 239.5752,
        "meta_mean_anomaly": 234.9582,
        "meta_ephemeris_type": 0,
        "meta_classification_type": "U",
        "meta_norad_cat_id": 30078,
        "meta_element_set_no": 999,
        "meta_rev_at_epoch": 97314,
        "meta_bstar": 0.0013299086,
        "meta_mean_motion_dot": 3.008e-05,
        "meta_mean_motion_ddot": 0,
        "tle_line1": "1 30078U 99025QF  25360.85969560  .00003008  00000+0  13299-2 0  9993",
        "tle_line2": "2 30078  98.8313  75.7727 0053565 239.5752 234.9582 14.23214876973149"
      },
      "geometry": {
        "type": "Point",
        "coordinates": [
          -107.96137623171519,
          -24.720552495728658
        ]
      }
    },
    {
      "type": "Feature",
      "properties": {
        "norad_id": 30079,
        "name": "FENGYUN 1C DEB",
        "group": "fengyun-1c-debris",
        "lat": -35.136342303300914,
        "lon": -129.82285206415273,
        "alt_km": 851.4598355071848,
        "timestamp": "2025-12-27T05:29:39.476626+00:00",
        "meta_object_name": "FENGYUN 1C DEB",
        "meta_object_id": "1999-025QG",
        "meta_epoch": "2025-12-26T15:22:50.648736",
        "meta_mean_motion": 14.00801229,
        "meta_eccentricity": 0.0085155,
        "meta_inclination": 99.0323,
        "meta_ra_of_asc_node": 56.0231,
        "meta_arg_of_pericenter": 259.8644,
        "meta_mean_anomaly": 232.419,
        "meta_ephemeris_type": 0,
        "meta_classification_type": "U",
        "meta_norad_cat_id": 30079,
        "meta_element_set_no": 999,
        "meta_rev_at_epoch": 96732,
        "meta_bstar": 0.00015217,
        "meta_mean_motion_dot": 1.89e-06,
        "meta_mean_motion_ddot": 0,
        "tle_line1": "1 30079U 99025QG  25360.64086399  .00000189  00000+0  15217-3 0  9991",
        "tle_line2": "2 30079  99.0323  56.0231 0085155 259.8644 232.4190 14.00801229967321"
      },
      "geometry": {
        "type": "Point",
        "coordinates": [
          -129.82285206415273,
          -35.136342303300914
        ]
      }
    }
  ]
}